[{"OBJECT_NAME":"STARLINK-3705","OBJECT_ID":"2022-029R","EPOCH":"2026-03-09T07:20:57.655968","MEAN_MOTION":15.08829187,"ECCENTRICITY":0.00014692,"INCLINATION":53.217,"RA_OF_ASC_NODE":80.8433,"ARG_OF_PERICENTER":90.242,"MEAN_ANOMALY":269.874,"EPHEMERIS_TYPE":0,"CLASSIFICATION_TYPE":"U","NORAD_CAT_ID":52103,"ELEMENT_SET_NO":999,"REV_AT_EPOCH":22072,"BSTAR":-0.00012207149,"MEAN_MOTION_DOT":-2.23e-5,"MEAN_MOTION_DDOT":0},{"OBJECT_NAME":"OBJECT E","OBJECT_ID":"2025-013E","EPOCH":"2026-03-09T23:59:52.369152","MEAN_MOTION":15.10347623,"ECCENTRICITY":0.00085591,"INCLINATION":97.6477,"RA_OF_ASC_NODE":238.3736,"ARG_OF_PERICENTER":6.9171,"MEAN_ANOMALY":353.2174,"EPHEMERIS_TYPE":0,"CLASSIFICATION_TYPE":"U","NORAD_CAT_ID":62733,"ELEMENT_SET_NO":999,"REV_AT_EPOCH":6224,"BSTAR":0.00032920786,"MEAN_MOTION_DOT":5.34e-5,"MEAN_MOTION_DDOT":0}]
